OBJECT_NAME,OBJECT_ID,EPOCH,MEAN_MOTION,ECCENTRICITY,INCLINATION,RA_OF_ASC_NODE,ARG_OF_PERICENTER,MEAN_ANOMALY,EPHEMERIS_TYPE,CLASSIFICATION_TYPE,NORAD_CAT_ID,ELEMENT_SET_NO,REV_AT_EPOCH,BSTAR,MEAN_MOTION_DOT,MEAN_MOTION_DDOT
GONETS-M 15,2019-096B,2026-05-11T05:01:31.986336,12.42869639,.0013913,82.5220,108.0213,256.7180,103.2348,0,U,44906,999,28905,-.41619E-3,-.48E-6,0
GONETS-M 16,2019-096C,2026-05-11T05:40:12.693792,12.42890508,.0009949,82.5167,106.9744,304.0650,55.9485,0,U,44907,999,28904,-.15703E-3,-.12E-6,0
RS-44 & BREEZE-KM R/B,2019-096E,2026-05-11T02:29:00.291840,12.79748087,.0216605,82.5243,4.3509,230.9343,127.2311,0,U,44909,999,29760,-.10444E-5,.1E-6,0
JILIN-1 KUANFU 01,2020-003A,2026-05-11T04:35:06.593856,15.10511394,.0011227,97.5037,205.8725,73.3644,286.8817,0,U,45016,999,34974,.11819E-3,.1886E-4,0
XINGYUN-2 02,2020-028B,2026-05-11T04:18:08.476128,15.11382552,.0012369,97.5085,137.8258,45.5251,314.6989,0,U,45603,999,32924,.58077E-4,.917E-5,0
HAIYANG-1D,2020-036A,2026-05-11T03:15:59.349312,14.34161183,.0001475,98.4537,73.6253,259.7111,100.3908,0,U,45721,999,30966,.11244E-3,.272E-5,0
M2 PATHFINDER,2020-037E,2026-05-11T01:40:55.058880,15.04512328,.0010264,97.8165,321.8867,279.5910,80.4156,0,U,45727,999,31991,.14174E-3,.1923E-4,0
GAOFEN DUOMO (GFDM),2020-042A,2026-05-11T05:08:39.580800,14.76829335,.0010658,97.7765,192.4414,185.0140,175.0966,0,U,45856,999,31555,.10707E-3,.703E-5,0
ZIYUAN 3-03 (ZY 3-03),2020-051A,2026-05-11T05:18:28.615392,15.21464164,.0007159,97.2846,200.1364,82.3886,277.8163,0,U,45939,999,32172,.24991E-4,.495E-5,0
NEMO-HD,2020-061F,2026-05-11T04:37:58.869408,15.43845158,.0002259,97.1943,193.5363,124.6935,235.4526,0,U,46277,999,31627,.17338E-3,.7775E-4,0
NAPA-1,2020-061BA,2026-05-11T05:14:17.163744,15.63524240,.0001752,97.2488,204.3147,142.9800,217.1580,0,U,46320,999,31595,.45276E-3,.41918E-3,0
JILIN-1 GAOFEN 3E,2020-065D,2026-05-11T04:19:19.706016,15.59620499,.0009684,97.2297,183.0452,294.6687,65.3562,0,U,46457,999,31398,.44569E-3,.35548E-3,0
JILIN-1 GAOFEN 3F,2020-065E,2026-05-11T03:32:37.959648,15.57445651,.0011223,97.2253,180.5071,282.3424,77.6575,0,U,46458,999,31393,.40249E-3,.29571E-3,0
JILIN-1 GAOFEN 3G,2020-065F,2026-05-11T04:42:34.615872,15.65325357,.0012164,97.2326,186.8198,177.8961,182.2353,0,U,46459,999,31414,.5066E-3,.50605E-3,0
JILIN-1 GAOFEN 3H,2020-065G,2026-05-11T03:56:35.850048,15.62888688,.0009195,97.2270,183.3057,124.1723,236.0408,0,U,46460,999,31409,.4638E-3,.41974E-3,0
JILIN-1 GAOFEN 3J,2020-065J,2026-05-10T21:07:09.903072,16.37712937,.001199,97.2098,191.8652,260.2001,99.7944,0,U,46462,999,31456,.72977E-3,.7104692E-1,.24219E-5
HAIYANG-2C,2020-066A,2026-05-11T03:37:12.397152,13.83371280,.0010237,65.9982,307.4968,240.7033,119.3012,0,U,46469,999,28437,-.65342E-4,-.153E-5,0
HJ-2B,2020-067B,2026-05-11T04:49:33.667968,14.76510605,.0001389,97.8884,211.4391,75.3780,284.7584,0,U,46479,999,30280,.88119E-4,.564E-5,0
GONETS-M 17,2020-068A,2026-05-11T04:19:42.938112,12.42871360,.0023206,82.5017,10.5258,114.3402,246.0103,0,U,46486,999,25456,-.77272E-3,-.97E-6,0
GONETS-M 19,2020-068C,2026-05-11T02:52:46.749792,12.42890807,.0014097,82.4995,10.1390,124.2513,235.9904,0,U,46488,999,25464,-.51376E-3,-.61E-6,0
DEKART,2020-068H,2026-05-11T03:50:49.602912,15.36487528,.0010728,97.8760,137.8050,64.0115,296.2231,0,U,46493,999,31008,.24015E-3,.8475E-4,0
NORBI,2020-068J,2026-05-11T05:42:20.741184,15.46880658,.0007772,97.8654,143.9930,48.2544,311.9367,0,U,46494,999,31049,.30629E-3,.15325E-3,0
SALSAT,2020-068K,2026-05-10T23:39:23.537376,15.29246502,.001158,97.8863,131.8035,76.8104,283.4426,0,U,46495,999,30967,.18361E-3,.5135E-4,0
ICEYE-X6,2020-068M,2026-05-11T05:03:07.452288,15.04319169,.0006374,98.0965,123.1239,203.0772,157.0167,0,U,46497,999,30767,.10143E-3,.1346E-4,0
