GONETS-M 15             
1 44906U 19096B   26131.20939799 -.00000048  00000+0 -41619-3 0  9996
2 44906  82.5220 108.0213 0013913 256.7180 103.2348 12.42869639289050
GONETS-M 16             
1 44907U 19096C   26131.23625803 -.00000012  00000+0 -15703-3 0  9994
2 44907  82.5167 106.9744 0009949 304.0650  55.9485 12.42890508289043
RS-44 & BREEZE-KM R/B   
1 44909U 19096E   26131.10347560  .00000010  00000+0 -10444-5 0  9999
2 44909  82.5243   4.3509 0216605 230.9343 127.2311 12.79748087297601
JILIN-1 KUANFU 01       
1 45016U 20003A   26131.19104854  .00001886  00000+0  11819-3 0  9991
2 45016  97.5037 205.8725 0011227  73.3644 286.8817 15.10511394349745
XINGYUN-2 02            
1 45603U 20028B   26131.17926477  .00000917  00000+0  58077-4 0  9993
2 45603  97.5085 137.8258 0012369  45.5251 314.6989 15.11382552329244
HAIYANG-1D              
1 45721U 20036A   26131.13610358  .00000272  00000+0  11244-3 0  9995
2 45721  98.4537  73.6253 0001475 259.7111 100.3908 14.34161183309663
M2 PATHFINDER           
1 45727U 20037E   26131.07008170  .00001923  00000+0  14174-3 0  9997
2 45727  97.8165 321.8867 0010264 279.5910  80.4156 15.04512328319912
GAOFEN DUOMO (GFDM)     
1 45856U 20042A   26131.21434700  .00000703  00000+0  10707-3 0  9997
2 45856  97.7765 192.4414 0010658 185.0140 175.0966 14.76829335315556
ZIYUAN 3-03 (ZY 3-03)   
1 45939U 20051A   26131.22116453  .00000495  00000+0  24991-4 0  9991
2 45939  97.2846 200.1364 0007159  82.3886 277.8163 15.21464164321724
NEMO-HD                 
1 46277U 20061F   26131.19304247  .00007775  00000+0  17338-3 0  9998
2 46277  97.1943 193.5363 0002259 124.6935 235.4526 15.43845158316279
NAPA-1                  
1 46320U 20061BA  26131.21825421  .00041918  00000+0  45276-3 0  9991
2 46320  97.2488 204.3147 0001752 142.9800 217.1580 15.63524240315954
JILIN-1 GAOFEN 3E       
1 46457U 20065D   26131.18008919  .00035548  00000+0  44569-3 0  9993
2 46457  97.2297 183.0452 0009684 294.6687  65.3562 15.59620499313987
JILIN-1 GAOFEN 3F       
1 46458U 20065E   26131.14766157  .00029571  00000+0  40249-3 0  9995
2 46458  97.2253 180.5071 0011223 282.3424  77.6575 15.57445651313932
JILIN-1 GAOFEN 3G       
1 46459U 20065F   26131.19623398  .00050605  00000+0  50660-3 0  9990
2 46459  97.2326 186.8198 0012164 177.8961 182.2353 15.65325357314142
JILIN-1 GAOFEN 3H       
1 46460U 20065G   26131.16430382  .00041974  00000+0  46380-3 0  9991
2 46460  97.2270 183.3057 0009195 124.1723 236.0408 15.62888688314090
JILIN-1 GAOFEN 3J       
1 46462U 20065J   26130.87997574  .07104692  24219-5  72977-3 0  9990
2 46462  97.2098 191.8652 0011990 260.2001  99.7944 16.37712937314569
HAIYANG-2C              
1 46469U 20066A   26131.15083793 -.00000153  00000+0 -65342-4 0  9996
2 46469  65.9982 307.4968 0010236 240.7033 119.3012 13.83371280284375
HJ-2B                   
1 46479U 20067B   26131.20108412  .00000564  00000+0  88119-4 0  9991
2 46479  97.8884 211.4391 0001389  75.3780 284.7584 14.76510605302804
GONETS-M 17             
1 46486U 20068A   26131.18035808 -.00000097  00000+0 -77272-3 0  9995
2 46486  82.5017  10.5258 0023206 114.3402 246.0103 12.42871360254564
GONETS-M 19             
1 46488U 20068C   26131.11998553 -.00000061  00000+0 -51476-3 0  9994
2 46488  82.4995  10.1390 0014097 124.2513 235.9904 12.42890806254645
DEKART                  
1 46493U 20068H   26131.16029633  .00008475  00000+0  24015-3 0  9993
2 46493  97.8760 137.8050 0010728  64.0115 296.2231 15.36487528310080
NORBI                   
1 46494U 20068J   26131.23774006  .00015325  00000+0  30629-3 0  9993
2 46494  97.8654 143.9930 0007772  48.2544 311.9367 15.46880658310495
SALSAT                  
1 46495U 20068K   26130.98568909  .00005135  00000+0  18361-3 0  9995
2 46495  97.8863 131.8035 0011580  76.8104 283.4426 15.29246502309673
ICEYE-X6                
1 46497U 20068M   26131.21050292  .00001346  00000+0  10143-3 0  9995
2 46497  98.0965 123.1239 0006374 203.0772 157.0167 15.04319169307670
